STARLINK-36887          
1 67950U 26037U   26065.58334491 -.01701453  79520-3 -51386-2 0  9995
2 67950  43.0000 217.5418 0001342 271.5071 316.2079 15.91357105  2699
STARLINK-36897          
1 67951U 26037V   26065.58334491 -.01705687  79981-3 -51188-2 0  9990
2 67951  43.0001 217.5343 0001214 266.4878 324.3293 15.91480586  2692
STARLINK-36381          
1 67952U 26037W   26065.58334491 -.01700198  79708-3 -50333-2 0  9991
2 67952  43.0001 217.5197 0001403 272.5723 323.9806 15.91742432  2693
STARLINK-36824          
1 67953U 26037X   26065.58334491 -.01709179  80387-3 -50942-2 0  9991
2 67953  43.0001 217.5268 0001225 274.7331 318.9622 15.91613824  2696
STARLINK-36869          
1 67954U 26037Y   26065.58334491 -.01693146  79210-3 -49749-2 0  9994
2 67954  43.0000 217.5129 0001336 274.9403 324.1377 15.91886525  2693
STARLINK-36872          
1 67955U 26037Z   26065.58334491 -.01719752  81717-3 -49903-2 0  9994
2 67955  42.9999 217.4968 0001342 273.5891 331.7456 15.92130520  2692
STARLINK-36918          
1 67956U 26037AA  26065.58334491 -.01728661  82590-3 -49878-2 0  9995
2 67956  43.0001 217.4886 0001238 273.7708 334.8346 15.92240688  2690
STARLINK-36829          
1 67957U 26037AB  26065.58334491 -.01705833  80411-3 -49787-2 0  9991
2 67957  42.9998 217.5056 0001389 275.0131 327.0123 15.92016897  2696
STARLINK-36799          
1 67958U 26037AC  26065.58334491 -.01730864  82885-3 -49619-2 0  9995
2 67958  42.9997 217.4817 0001469 275.0600 336.4847 15.92364585  2697
STARLINK-36834          
1 67959U 26037AD  26065.58334491 -.01729530  82941-3 -49031-2 0  9995
2 67959  42.9997 217.4649 0001183 267.7150 350.3288 15.92578171  2694
STARLINK-36841          
1 67960U 26037AE  26065.58334491 -.01736475  83478-3 -49480-2 0  9997
2 67960  42.9996 217.4733 0001276 273.9371 340.7164 15.92481470  2697
STARLINK-36912          
1 67961U 26038A   26065.58334491 -.01622189  78126-3 -37070-2 0  9991
2 67961  97.2757  75.6221 0001295  96.8251 138.2021 15.97508368  2695
STARLINK-36881          
1 67962U 26038B   26065.58334491 -.01604230  76587-3 -36507-2 0  9992
2 67962  97.2755  75.6228 0001232  95.0702 142.0729 15.97582401  2692
STARLINK-36357          
1 67963U 26038C   26065.58334491 -.01591369  75649-3 -35730-2 0  9996
2 67963  97.2750  75.6254 0001399  95.5499 147.2669 15.97825588  2695
STARLINK-36349          
1 67964U 26038D   26065.58334491 -.01617912  77918-3 -36557-2 0  9999
2 67964  97.2749  75.6237 0001324  91.1714 148.8047 15.97714056  2699
STARLINK-36806          
1 67965U 26038E   26065.58334491 -.01606315  77102-3 -35775-2 0  9991
2 67965  97.2744  75.6266 0001271  91.8413 154.2658 15.97974891  2695
