[{"OBJECT_NAME":"STARLINK-36887","OBJECT_ID":"2026-037U","EPOCH":"2026-03-06T14:00:01.000224","MEAN_MOTION":15.91357105,"ECCENTRICITY":0.00013422,"INCLINATION":43,"RA_OF_ASC_NODE":217.5418,"ARG_OF_PERICENTER":271.5071,"MEAN_ANOMALY":316.2079,"EPHEMERIS_TYPE":0,"CLASSIFICATION_TYPE":"U","NORAD_CAT_ID":67950,"ELEMENT_SET_NO":999,"REV_AT_EPOCH":269,"BSTAR":-0.0051385938,"MEAN_MOTION_DOT":-0.01701453,"MEAN_MOTION_DDOT":0.00079519657},{"OBJECT_NAME":"STARLINK-36897","OBJECT_ID":"2026-037V","EPOCH":"2026-03-06T14:00:01.000224","MEAN_MOTION":15.91480586,"ECCENTRICITY":0.00012147,"INCLINATION":43.0001,"RA_OF_ASC_NODE":217.5343,"ARG_OF_PERICENTER":266.4878,"MEAN_ANOMALY":324.3293,"EPHEMERIS_TYPE":0,"CLASSIFICATION_TYPE":"U","NORAD_CAT_ID":67951,"ELEMENT_SET_NO":999,"REV_AT_EPOCH":269,"BSTAR":-0.0051188497,"MEAN_MOTION_DOT":-0.01705687,"MEAN_MOTION_DDOT":0.00079980626},{"OBJECT_NAME":"STARLINK-36381","OBJECT_ID":"2026-037W","EPOCH":"2026-03-06T14:00:01.000224","MEAN_MOTION":15.91742432,"ECCENTRICITY":0.00014036,"INCLINATION":43.0001,"RA_OF_ASC_NODE":217.5197,"ARG_OF_PERICENTER":272.5723,"MEAN_ANOMALY":323.9806,"EPHEMERIS_TYPE":0,"CLASSIFICATION_TYPE":"U","NORAD_CAT_ID":67952,"ELEMENT_SET_NO":999,"REV_AT_EPOCH":269,"BSTAR":-0.0050333152,"MEAN_MOTION_DOT":-0.01700198,"MEAN_MOTION_DDOT":0.00079708267},{"OBJECT_NAME":"STARLINK-36824","OBJECT_ID":"2026-037X","EPOCH":"2026-03-06T14:00:01.000224","MEAN_MOTION":15.91613824,"ECCENTRICITY":0.0001225,"INCLINATION":43.0001,"RA_OF_ASC_NODE":217.5268,"ARG_OF_PERICENTER":274.7331,"MEAN_ANOMALY":318.9622,"EPHEMERIS_TYPE":0,"CLASSIFICATION_TYPE":"U","NORAD_CAT_ID":67953,"ELEMENT_SET_NO":999,"REV_AT_EPOCH":269,"BSTAR":-0.0050942093,"MEAN_MOTION_DOT":-0.01709179,"MEAN_MOTION_DDOT":0.00080386633},{"OBJECT_NAME":"STARLINK-36869","OBJECT_ID":"2026-037Y","EPOCH":"2026-03-06T14:00:01.000224","MEAN_MOTION":15.91886525,"ECCENTRICITY":0.00013364,"INCLINATION":43,"RA_OF_ASC_NODE":217.5129,"ARG_OF_PERICENTER":274.9403,"MEAN_ANOMALY":324.1377,"EPHEMERIS_TYPE":0,"CLASSIFICATION_TYPE":"U","NORAD_CAT_ID":67954,"ELEMENT_SET_NO":999,"REV_AT_EPOCH":269,"BSTAR":-0.0049748533,"MEAN_MOTION_DOT":-0.01693146,"MEAN_MOTION_DDOT":0.00079210007},{"OBJECT_NAME":"STARLINK-36872","OBJECT_ID":"2026-037Z","EPOCH":"2026-03-06T14:00:01.000224","MEAN_MOTION":15.9213052,"ECCENTRICITY":0.0001342,"INCLINATION":42.9999,"RA_OF_ASC_NODE":217.4968,"ARG_OF_PERICENTER":273.5891,"MEAN_ANOMALY":331.7456,"EPHEMERIS_TYPE":0,"CLASSIFICATION_TYPE":"U","NORAD_CAT_ID":67955,"ELEMENT_SET_NO":999,"REV_AT_EPOCH":269,"BSTAR":-0.0049902787,"MEAN_MOTION_DOT":-0.01719752,"MEAN_MOTION_DDOT":0.00081717005},{"OBJECT_NAME":"STARLINK-36918","OBJECT_ID":"2026-037AA","EPOCH":"2026-03-06T14:00:01.000224","MEAN_MOTION":15.92240688,"ECCENTRICITY":0.00012388,"INCLINATION":43.0001,"RA_OF_ASC_NODE":217.4886,"ARG_OF_PERICENTER":273.7708,"MEAN_ANOMALY":334.8346,"EPHEMERIS_TYPE":0,"CLASSIFICATION_TYPE":"U","NORAD_CAT_ID":67956,"ELEMENT_SET_NO":999,"REV_AT_EPOCH":269,"BSTAR":-0.004987796,"MEAN_MOTION_DOT":-0.01728661,"MEAN_MOTION_DDOT":0.0008258962},{"OBJECT_NAME":"STARLINK-36829","OBJECT_ID":"2026-037AB","EPOCH":"2026-03-06T14:00:01.000224","MEAN_MOTION":15.92016897,"ECCENTRICITY":0.00013891,"INCLINATION":42.9998,"RA_OF_ASC_NODE":217.5056,"ARG_OF_PERICENTER":275.0131,"MEAN_ANOMALY":327.0123,"EPHEMERIS_TYPE":0,"CLASSIFICATION_TYPE":"U","NORAD_CAT_ID":67957,"ELEMENT_SET_NO":999,"REV_AT_EPOCH":269,"BSTAR":-0.0049787108,"MEAN_MOTION_DOT":-0.01705833,"MEAN_MOTION_DDOT":0.00080410808},{"OBJECT_NAME":"STARLINK-36799","OBJECT_ID":"2026-037AC","EPOCH":"2026-03-06T14:00:01.000224","MEAN_MOTION":15.92364585,"ECCENTRICITY":0.00014699,"INCLINATION":42.9997,"RA_OF_ASC_NODE":217.4817,"ARG_OF_PERICENTER":275.06,"MEAN_ANOMALY":336.4847,"EPHEMERIS_TYPE":0,"CLASSIFICATION_TYPE":"U","NORAD_CAT_ID":67958,"ELEMENT_SET_NO":999,"REV_AT_EPOCH":269,"BSTAR":-0.0049618796,"MEAN_MOTION_DOT":-0.01730864,"MEAN_MOTION_DDOT":0.00082884704},{"OBJECT_NAME":"STARLINK-36834","OBJECT_ID":"2026-037AD","EPOCH":"2026-03-06T14:00:01.000224","MEAN_MOTION":15.92578171,"ECCENTRICITY":0.00011836,"INCLINATION":42.9997,"RA_OF_ASC_NODE":217.4649,"ARG_OF_PERICENTER":267.715,"MEAN_ANOMALY":350.3288,"EPHEMERIS_TYPE":0,"CLASSIFICATION_TYPE":"U","NORAD_CAT_ID":67959,"ELEMENT_SET_NO":999,"REV_AT_EPOCH":269,"BSTAR":-0.004903091,"MEAN_MOTION_DOT":-0.0172953,"MEAN_MOTION_DDOT":0.00082940675},{"OBJECT_NAME":"STARLINK-36841","OBJECT_ID":"2026-037AE","EPOCH":"2026-03-06T14:00:01.000224","MEAN_MOTION":15.9248147,"ECCENTRICITY":0.0001276,"INCLINATION":42.9996,"RA_OF_ASC_NODE":217.4733,"ARG_OF_PERICENTER":273.9371,"MEAN_ANOMALY":340.7164,"EPHEMERIS_TYPE":0,"CLASSIFICATION_TYPE":"U","NORAD_CAT_ID":67960,"ELEMENT_SET_NO":999,"REV_AT_EPOCH":269,"BSTAR":-0.0049479685,"MEAN_MOTION_DOT":-0.01736475,"MEAN_MOTION_DDOT":0.00083477705},{"OBJECT_NAME":"STARLINK-36912","OBJECT_ID":"2026-038A","EPOCH":"2026-03-06T14:00:01.000224","MEAN_MOTION":15.97508368,"ECCENTRICITY":0.00012956,"INCLINATION":97.2757,"RA_OF_ASC_NODE":75.6221,"ARG_OF_PERICENTER":96.8251,"MEAN_ANOMALY":138.2021,"EPHEMERIS_TYPE":0,"CLASSIFICATION_TYPE":"U","NORAD_CAT_ID":67961,"ELEMENT_SET_NO":999,"REV_AT_EPOCH":269,"BSTAR":-0.0037070372,"MEAN_MOTION_DOT":-0.01622189,"MEAN_MOTION_DDOT":0.00078126366},{"OBJECT_NAME":"STARLINK-36881","OBJECT_ID":"2026-038B","EPOCH":"2026-03-06T14:00:01.000224","MEAN_MOTION":15.97582401,"ECCENTRICITY":0.00012327,"INCLINATION":97.2755,"RA_OF_ASC_NODE":75.6228,"ARG_OF_PERICENTER":95.0702,"MEAN_ANOMALY":142.0729,"EPHEMERIS_TYPE":0,"CLASSIFICATION_TYPE":"U","NORAD_CAT_ID":67962,"ELEMENT_SET_NO":999,"REV_AT_EPOCH":269,"BSTAR":-0.0036507068,"MEAN_MOTION_DOT":-0.0160423,"MEAN_MOTION_DDOT":0.00076586788},{"OBJECT_NAME":"STARLINK-36357","OBJECT_ID":"2026-038C","EPOCH":"2026-03-06T14:00:01.000224","MEAN_MOTION":15.97825588,"ECCENTRICITY":0.00013991,"INCLINATION":97.275,"RA_OF_ASC_NODE":75.6254,"ARG_OF_PERICENTER":95.5499,"MEAN_ANOMALY":147.2669,"EPHEMERIS_TYPE":0,"CLASSIFICATION_TYPE":"U","NORAD_CAT_ID":67963,"ELEMENT_SET_NO":999,"REV_AT_EPOCH":269,"BSTAR":-0.0035729955,"MEAN_MOTION_DOT":-0.01591369,"MEAN_MOTION_DDOT":0.00075649395},{"OBJECT_NAME":"STARLINK-36349","OBJECT_ID":"2026-038D","EPOCH":"2026-03-06T14:00:01.000224","MEAN_MOTION":15.97714056,"ECCENTRICITY":0.00013242,"INCLINATION":97.2749,"RA_OF_ASC_NODE":75.6237,"ARG_OF_PERICENTER":91.1714,"MEAN_ANOMALY":148.8047,"EPHEMERIS_TYPE":0,"CLASSIFICATION_TYPE":"U","NORAD_CAT_ID":67964,"ELEMENT_SET_NO":999,"REV_AT_EPOCH":269,"BSTAR":-0.0036556747,"MEAN_MOTION_DOT":-0.01617912,"MEAN_MOTION_DDOT":0.00077918353},{"OBJECT_NAME":"STARLINK-36806","OBJECT_ID":"2026-038E","EPOCH":"2026-03-06T14:00:01.000224","MEAN_MOTION":15.97974891,"ECCENTRICITY":0.00012716,"INCLINATION":97.2744,"RA_OF_ASC_NODE":75.6266,"ARG_OF_PERICENTER":91.8413,"MEAN_ANOMALY":154.2658,"EPHEMERIS_TYPE":0,"CLASSIFICATION_TYPE":"U","NORAD_CAT_ID":67965,"ELEMENT_SET_NO":999,"REV_AT_EPOCH":269,"BSTAR":-0.0035775116,"MEAN_MOTION_DOT":-0.01606315,"MEAN_MOTION_DDOT":0.00077102195}]
